{
    "links": {
        "self": "http://www.neowsapp.com/rest/v1/neo/54054416?api_key=iIulBulltgU6a56xZRHN4H3l9WmuAYTsLGpBGhQ2"
    },
    "id": "54054416",
    "neo_reference_id": "54054416",
    "name": "(2020 SH)",
    "designation": "2020 SH",
    "nasa_jpl_url": "http://ssd.jpl.nasa.gov/sbdb.cgi?sstr=54054416",
    "absolute_magnitude_h": 22.028,
    "estimated_diameter": {
        "kilometers": {
            "estimated_diameter_min": 0.1044611918,
            "estimated_diameter_max": 0.233582326
        },
        "meters": {
            "estimated_diameter_min": 104.4611918487,
            "estimated_diameter_max": 233.5823259843
        },
        "miles": {
            "estimated_diameter_min": 0.0649091552,
            "estimated_diameter_max": 0.1451412835
        },
        "feet": {
            "estimated_diameter_min": 342.7204566648,
            "estimated_diameter_max": 766.3462383822
        }
    },
    "is_potentially_hazardous_asteroid": false,
    "close_approach_data": [
        {
            "close_approach_date": "2020-10-06",
            "close_approach_date_full": "2020-Oct-06 07:47",
            "epoch_date_close_approach": 1601970420000,
            "relative_velocity": {
                "kilometers_per_second": "17.1921814199",
                "kilometers_per_hour": "61891.8531117854",
                "miles_per_hour": "38457.1906182647"
            },
            "miss_distance": {
                "astronomical": "0.1114869864",
                "lunar": "43.3684377096",
                "kilometers": "16678215.698158968",
                "miles": "10363362.6793230384"
            },
            "orbiting_body": "Earth"
        }
    ],
    "orbital_data": {
        "orbit_id": "3",
        "orbit_determination_date": "2020-10-15 07:42:49",
        "first_observation_date": "2020-09-16",
        "last_observation_date": "2020-10-13",
        "data_arc_in_days": 27,
        "observations_used": 39,
        "orbit_uncertainty": "8",
        "minimum_orbit_intersection": ".0831596",
        "jupiter_tisserand_invariant": "2.944",
        "epoch_osculation": "2459126.5",
        "eccentricity": ".6953138471613446",
        "semi_major_axis": "2.711260168089541",
        "inclination": "8.99607139602033",
        "ascending_node_longitude": "231.0305028974159",
        "orbital_period": "1630.629209262587",
        "perihelion_distance": ".8260834299598885",
        "perihelion_argument": "199.5854561879147",
        "aphelion_distance": "4.596436906219195",
        "perihelion_time": "2459164.555666155152",
        "mean_anomaly": "351.5983108004975",
        "mean_motion": ".2207736731042623",
        "equinox": "J2000",
        "orbit_class": {
            "orbit_class_type": "APO",
            "orbit_class_description": "Near-Earth asteroid orbits which cross the Earth’s orbit similar to that of 1862 Apollo",
            "orbit_class_range": "a (semi-major axis) > 1.0 AU; q (perihelion) < 1.017 AU"
        }
    },
    "is_sentry_object": false
}